VDNH-80                 
1 44392U 19038G   21250.44427949  .00002139  00000-0  12110-3 0  9999
2 44392  97.5936 214.7936 0022113  33.2419  85.8720 15.13946103119998
D-STAR ONE (LIGHTSAT)   
1 44393U 19038H   21250.35903745  .00001940  00000-0  11045-3 0  9998
2 44393  97.5957 214.5793 0022370  34.4058 325.8616 15.13846865120175
AMGU-1 (AMURSAT)        
1 44394U 19038J   21249.91212893  .00001927  00000-0  10972-3 0  9999
2 44394  97.5935 214.0761 0022536  35.1833 325.0880 15.13851382120103
DOT-1                   
1 44399U 19038P   21250.38466245  .00001439  00000-0  85075-4 0  9994
2 44399  97.5983 213.9249 0025383  37.3773 322.9217 15.12842403120125
SOKRAT                  
1 44404U 19038U   21249.80873313  .00001938  00000-0  11086-3 0  9998
2 44404  97.5945 213.7266 0022766  37.9089 322.3740 15.13677582120079
LUCKY-7                 
1 44406U 19038W   21249.86175714  .00001474  00000-0  86372-4 0  9992
2 44406  97.5975 213.6443 0025080  32.0289 328.2459 15.13135066120056
D-STAR ONE (EXOCONNECT) 
1 44410U 19038AA  21249.85866903  .00003391  00000-0  18643-3 0  9998
2 44410  97.5915 214.1227 0022350  35.5514 324.7202 15.14565402120113
NARSSCUBE-2             
1 44415U 19022E   21249.81258919  .00001310  00000-0  54617-4 0  9995
2 44415  51.6424  46.4456 0011795 115.2413 244.9792 15.31350305116619
KRAKSAT                 
1 44427U 98067QM  21250.52045316  .00040664  00000-0  30619-3 0  9999
2 44427  51.6370 241.8248 0001953 128.5022 326.5090 15.72101412124367
ENTRYSAT                
1 44429U 98067QP  21222.50999637  .13114982  12639-4  26452-3 0  9996
2 44429  51.6073 351.2662 0008582 295.0172  64.9966 16.46454560120409
NARSSCUBE-1             
1 44792U 98067QX  21250.41814087  .00050359  00000-0  37134-3 0  9992
2 44792  51.6324 253.2596 0000356 306.7110  53.3856 15.72501298102433
DUCHIFAT-3              
1 44854U 19089C   21250.36175836  .00000759  00000-0  66825-4 0  9993
2 44854  36.9695 336.2092 0007254  74.1103 286.0433 14.99607982 95403
OPS-SAT                 
1 44878U 19092F   21249.73803599  .00001875  00000-0  98876-4 0  9997
2 44878  97.4776  72.0697 0012205 245.3517 114.6446 15.16743436 95157
FLORIPASAT-1            
1 44885U 19093G   21250.43609010  .00000360  00000-0  51638-4 0  9990
2 44885  97.9231 329.0683 0015523  38.6937 321.5382 14.82367424 92911
HUSKYSAT-1 (HO-107)     
1 45119U 19071J   21249.73982280  .00005259  00000-0  15633-3 0  9997
2 45119  51.6427   2.5781 0010734 222.7568 137.2581 15.36398784 89667
G-SAT                   
1 45597U 98067RK  21249.81615137  .00018359  00000-0  22564-3 0  9998
2 45597  51.6381 280.1146 0002886 298.4039  61.6663 15.60327756 77304
QUETZAL-1               
1 45598U 98067RL  21250.36658636  .00026901  00000-0  29307-3 0  9996
2 45598  51.6372 274.7829 0002288   0.7555 359.3442 15.63203710 77358
BY70-2                  
1 45857U 20042B   21250.40639615  .00001314  00000-0  19252-3 0  9992
2 45857  97.9817 325.3029 0009567 315.1515  44.8920 14.77250146 63647
SALSAT                  
1 46495U 20068K   21249.58933976 -.00000030  00000-0  23337-5 0  9999
2 46495  97.6934 186.6199 0016928 153.2454 206.9648 15.03522648 51522
NETSAT-4                
1 46504U 20068U   21249.76762262  .00001189  00000-0  94762-4 0  9992
2 46504  97.6933 185.9576 0012947 203.1119 156.9520 15.02211975 51444
NETSAT-3                
1 46505U 20068V   21249.70983127  .00001476  00000-0  11667-3 0  9993
2 46505  97.6891 185.8540 0011341 216.8880 143.1558 15.02163298 51444
NETSAT-1                
1 46506U 20068W   21249.78475032  .00000690  00000-0  57070-4 0  9999
2 46506  97.6888 185.9001 0008498 234.1114 125.9348 15.02111632 51457
NETSAT-2                
1 46507U 20068X   21249.78960619  .00000122  00000-0  13867-4 0  9996
2 46507  97.6891 185.9045 0007066 241.1679 118.8841 15.02084905 51400
BY70-3                  
1 46839U 20079N   21250.18289073  .00004252  00000-0  13048-3 0  9998
2 46839  97.2361 322.4242 0005325 270.5580 173.4803 15.34271917 46737
SPOC                    
1 46921U 98067RR  21249.80971743  .00011494  00000-0  16829-3 0  9997
2 46921  51.6407 289.8477 0002832  30.7751 329.3406 15.56076992 47525
BOBCAT-1                
1 46922U 98067RS  21249.84286109  .00019594  00000-0  25582-3 0  9992
2 46922  51.6407 287.0972 0002984  34.6162 325.5024 15.58675831 47526
NEUTRON-1               
1 46923U 98067RT  21249.83194187  .00011509  00000-0  16926-3 0  9996
2 46923  51.6406 289.9928 0002847  40.7776 319.3428 15.55952007 47557
1998-067RU              
1 46924U 98067RU  21250.06773123  .00043639  00000-0  43603-3 0  9998
2 46924  51.6367 280.2868 0003773  48.1396 311.9921 15.65150125 47659
DESCENT                 
1 46927U 98067RX  21250.35111168  .00010950  00000-0  16127-3 0  9999
2 46927  51.6403 287.4563 0003005  56.1919 303.9358 15.55971845 47533
UVSQ-SAT                
1 47438U 21006AB  21249.84827525  .00001348  00000-0  79177-4 0  9995
2 47438  97.4804 309.5939 0012972 169.9580 190.1913 15.13329759 34362
SOMP2B                  
1 47445U 21006AJ  21250.13596910  .00001200  00000-0  71244-4 0  9992
2 47445  97.4777 309.7390 0012524 172.6563 187.4854 15.13161171 34407
WARP-01                 
1 47924U 98067SA  21249.52309356  .00017142  00000-0  26716-3 0  9997
2 47924  51.6410 296.9036 0005689  44.7809 315.3640 15.53958085 27392
RSP-01                  
1 47925U 98067SB  21249.86419414  .00012628  00000-0  20317-3 0  9997
2 47925  51.6417 295.4427 0002637 359.7947   0.3042 15.53367514 27422
TAUSAT-1                
1 47926U 98067SC  21249.86188067  .00015206  00000-0  23506-3 0  9993
2 47926  51.6405 294.6724 0003785 353.8654   6.2290 15.54293544 27428
TSURU                   
1 47927U 98067SD  21249.49532413  .00012308  00000-0  20064-3 0  9997
2 47927  51.6419 297.4789 0002578 356.2787   3.8184 15.53026305 27365
STARS-EC                
1 47928U 98067SE  21249.85287764  .00016264  00000-0  25410-3 0  9999
2 47928  51.6411 295.3583 0006322  49.1658 310.9880 15.53930119 27400
MAYA-2                  
1 47929U 98067SF  21249.42754952  .00011112  00000-0  18174-3 0  9997
2 47929  51.6418 297.7756 0002602 352.6875   7.4077 15.53049153 27311
HIROGARI (OPUSAT-II)    
1 47930U 98067SG  21249.74994486  .00018347  00000-0  28030-3 0  9991
2 47930  51.6414 295.4321 0002819 354.3906   5.7052 15.54463754 27419
GUARANISAT-1            
1 47931U 98067SH  21249.55463975  .00012451  00000-0  20256-3 0  9997
2 47931  51.6420 297.1269 0002647 352.1873   7.9076 15.53071243 27377
DIY-1 (ARDUIQUBE)       
1 47963U 21022AH  21250.40662527  .00003907  00000-0  25927-3 0  9995
2 47963  97.5497 151.2759 0020625  28.9617 331.2751 15.07656196 24240
